ONEWEB-0596             
1 54662U 22166W   25351.33150729  .00000051  00000+0  92143-4 0  9994
2 54662  87.9221 280.2602 0001710  76.3441 283.7884 13.21824425147518
ONEWEB-0597             
1 54663U 22166X   25351.31341076  .00000159  00000+0  35439-3 0  9993
2 54663  87.9222 280.2684 0001832  80.2260 279.9081 13.21825663147519
ONEWEB-0600             
1 54664U 22166Y   25351.29530422  .00000037  00000+0  57143-4 0  9998
2 54664  87.9221 280.2628 0001940  78.0505 282.0846 13.21826255147482
ONEWEB-0601             
1 54665U 22166Z   25351.28707686 -.00000190  00000+0 -49257-3 0  9994
2 54665  87.9221 280.2823 0001852  85.7272 274.4073 13.21826587147674
ONEWEB-0602             
1 54666U 22166AA  25351.32739028  .00000118  00000+0  25398-3 0  9993
2 54666  87.9223 280.2785 0002157  76.2767 283.8607 13.21827353147520
ONEWEB-0603             
1 54667U 22166AB  25351.33315478  .00000035  00000+0  52910-4 0  9993
2 54667  87.9232 280.2169 0001900  79.7514 280.3834 13.21823704147452
ONEWEB-0604             
1 54668U 22166AC  25351.32162996  .00000059  00000+0  11220-3 0  9992
2 54668  87.9224 280.2387 0001828  75.3991 284.7345 13.21823883147415
ONEWEB-0605             
1 54669U 22166AD  25351.31505466  .00000247  00000+0  56569-3 0  9999
2 54669  87.9222 280.2677 0001717  97.0202 263.1128 13.21826181147480
ONEWEB-0606             
1 54670U 22166AE  25351.26074994  .00000005  00000+0 -19986-4 0  9998
2 54670  87.9223 280.2899 0001686  71.8009 288.3308 13.21826499147536
ONEWEB-0607             
1 54671U 22166AF  25351.30353194  .00000346  00000+0  80659-3 0  9997
2 54671  87.9221 280.2448 0001925  79.4556 280.6794 13.21827579147514
ONEWEB-0608             
1 54672U 22166AG  25351.31011271  .00000142  00000+0  31146-3 0  9997
2 54672  87.9231 280.2317 0001926  93.3291 266.8063 13.21825337147529
ONEWEB-0610             
1 54673U 22166AH  25351.29036589  .00000175  00000+0  39325-3 0  9997
2 54673  87.9220 280.2682 0002016  94.0571 266.0794 13.21824730147421
ONEWEB-0611             
1 54674U 22166AJ  25351.28378079  .00000024  00000+0  26457-4 0  9996
2 54674  87.9220 280.2652 0001824  70.3729 289.7602 13.21827683147416
ONEWEB-0612             
1 54675U 22166AK  25351.29694834  .00000125  00000+0  27233-3 0  9992
2 54675  87.9224 280.2417 0001863  80.8621 279.2724 13.21825906147404
ONEWEB-0615             
1 54676U 22166AL  25351.27720366 -.00000003  00000+0 -38087-4 0  9998
2 54676  87.9223 280.2728 0001832  77.4353 282.6986 13.21827275147419
ONEWEB-0655             
1 54677U 22166AM  25351.32822374  .00000087  00000+0  18007-3 0  9996
2 54677  87.9220 280.2665 0002062  77.8660 282.2705 13.21826125147416
