[{"OBJECT_NAME":"ONEWEB-0596","OBJECT_ID":"2022-166W","EPOCH":"2025-12-17T07:57:22.229856","MEAN_MOTION":13.21824425,"ECCENTRICITY":0.00017104,"INCLINATION":87.9221,"RA_OF_ASC_NODE":280.2602,"ARG_OF_PERICENTER":76.3441,"MEAN_ANOMALY":283.7884,"EPHEMERIS_TYPE":0,"CLASSIFICATION_TYPE":"U","NORAD_CAT_ID":54662,"ELEMENT_SET_NO":999,"REV_AT_EPOCH":14751,"BSTAR":9.2142931e-5,"MEAN_MOTION_DOT":5.1e-7,"MEAN_MOTION_DDOT":0},{"OBJECT_NAME":"ONEWEB-0597","OBJECT_ID":"2022-166X","EPOCH":"2025-12-17T07:31:18.689664","MEAN_MOTION":13.21825663,"ECCENTRICITY":0.00018328,"INCLINATION":87.9222,"RA_OF_ASC_NODE":280.2684,"ARG_OF_PERICENTER":80.226,"MEAN_ANOMALY":279.9081,"EPHEMERIS_TYPE":0,"CLASSIFICATION_TYPE":"U","NORAD_CAT_ID":54663,"ELEMENT_SET_NO":999,"REV_AT_EPOCH":14751,"BSTAR":0.00035438727,"MEAN_MOTION_DOT":1.59e-6,"MEAN_MOTION_DDOT":0},{"OBJECT_NAME":"ONEWEB-0600","OBJECT_ID":"2022-166Y","EPOCH":"2025-12-17T07:05:14.284608","MEAN_MOTION":13.21826255,"ECCENTRICITY":0.00019405,"INCLINATION":87.9221,"RA_OF_ASC_NODE":280.2628,"ARG_OF_PERICENTER":78.0505,"MEAN_ANOMALY":282.0846,"EPHEMERIS_TYPE":0,"CLASSIFICATION_TYPE":"U","NORAD_CAT_ID":54664,"ELEMENT_SET_NO":999,"REV_AT_EPOCH":14748,"BSTAR":5.7142979e-5,"MEAN_MOTION_DOT":3.7e-7,"MEAN_MOTION_DDOT":0},{"OBJECT_NAME":"ONEWEB-0601","OBJECT_ID":"2022-166Z","EPOCH":"2025-12-17T06:53:23.440704","MEAN_MOTION":13.21826587,"ECCENTRICITY":0.00018525,"INCLINATION":87.9221,"RA_OF_ASC_NODE":280.2823,"ARG_OF_PERICENTER":85.7272,"MEAN_ANOMALY":274.4073,"EPHEMERIS_TYPE":0,"CLASSIFICATION_TYPE":"U","NORAD_CAT_ID":54665,"ELEMENT_SET_NO":999,"REV_AT_EPOCH":14767,"BSTAR":-0.00049257428,"MEAN_MOTION_DOT":-1.9e-6,"MEAN_MOTION_DDOT":0},{"OBJECT_NAME":"ONEWEB-0602","OBJECT_ID":"2022-166AA","EPOCH":"2025-12-17T07:51:26.520192","MEAN_MOTION":13.21827353,"ECCENTRICITY":0.00021579,"INCLINATION":87.9223,"RA_OF_ASC_NODE":280.2785,"ARG_OF_PERICENTER":76.2767,"MEAN_ANOMALY":283.8607,"EPHEMERIS_TYPE":0,"CLASSIFICATION_TYPE":"U","NORAD_CAT_ID":54666,"ELEMENT_SET_NO":999,"REV_AT_EPOCH":14752,"BSTAR":0.00025398111,"MEAN_MOTION_DOT":1.18e-6,"MEAN_MOTION_DDOT":0},{"OBJECT_NAME":"ONEWEB-0603","OBJECT_ID":"2022-166AB","EPOCH":"2025-12-17T07:59:44.572992","MEAN_MOTION":13.21823704,"ECCENTRICITY":0.00019009,"INCLINATION":87.9232,"RA_OF_ASC_NODE":280.2169,"ARG_OF_PERICENTER":79.7514,"MEAN_ANOMALY":280.3834,"EPHEMERIS_TYPE":0,"CLASSIFICATION_TYPE":"U","NORAD_CAT_ID":54667,"ELEMENT_SET_NO":999,"REV_AT_EPOCH":14745,"BSTAR":5.2910232e-5,"MEAN_MOTION_DOT":3.5e-7,"MEAN_MOTION_DDOT":0},{"OBJECT_NAME":"ONEWEB-0604","OBJECT_ID":"2022-166AC","EPOCH":"2025-12-17T07:43:08.828544","MEAN_MOTION":13.21823883,"ECCENTRICITY":0.00018283,"INCLINATION":87.9224,"RA_OF_ASC_NODE":280.2387,"ARG_OF_PERICENTER":75.3991,"MEAN_ANOMALY":284.7345,"EPHEMERIS_TYPE":0,"CLASSIFICATION_TYPE":"U","NORAD_CAT_ID":54668,"ELEMENT_SET_NO":999,"REV_AT_EPOCH":14741,"BSTAR":0.00011219575,"MEAN_MOTION_DOT":5.9e-7,"MEAN_MOTION_DDOT":0},{"OBJECT_NAME":"ONEWEB-0605","OBJECT_ID":"2022-166AD","EPOCH":"2025-12-17T07:33:40.722624","MEAN_MOTION":13.21826181,"ECCENTRICITY":0.00017172,"INCLINATION":87.9222,"RA_OF_ASC_NODE":280.2677,"ARG_OF_PERICENTER":97.0202,"MEAN_ANOMALY":263.1128,"EPHEMERIS_TYPE":0,"CLASSIFICATION_TYPE":"U","NORAD_CAT_ID":54669,"ELEMENT_SET_NO":999,"REV_AT_EPOCH":14748,"BSTAR":0.0005656928,"MEAN_MOTION_DOT":2.47e-6,"MEAN_MOTION_DDOT":0},{"OBJECT_NAME":"ONEWEB-0606","OBJECT_ID":"2022-166AE","EPOCH":"2025-12-17T06:15:28.794816","MEAN_MOTION":13.21826499,"ECCENTRICITY":0.0001686,"INCLINATION":87.9223,"RA_OF_ASC_NODE":280.2899,"ARG_OF_PERICENTER":71.8009,"MEAN_ANOMALY":288.3308,"EPHEMERIS_TYPE":0,"CLASSIFICATION_TYPE":"U","NORAD_CAT_ID":54670,"ELEMENT_SET_NO":999,"REV_AT_EPOCH":14753,"BSTAR":-1.9986261e-5,"MEAN_MOTION_DOT":5.0e-8,"MEAN_MOTION_DDOT":0},{"OBJECT_NAME":"ONEWEB-0607","OBJECT_ID":"2022-166AF","EPOCH":"2025-12-17T07:17:05.159616","MEAN_MOTION":13.21827579,"ECCENTRICITY":0.00019253,"INCLINATION":87.9221,"RA_OF_ASC_NODE":280.2448,"ARG_OF_PERICENTER":79.4556,"MEAN_ANOMALY":280.6794,"EPHEMERIS_TYPE":0,"CLASSIFICATION_TYPE":"U","NORAD_CAT_ID":54671,"ELEMENT_SET_NO":999,"REV_AT_EPOCH":14751,"BSTAR":0.00080658812,"MEAN_MOTION_DOT":3.46e-6,"MEAN_MOTION_DDOT":0},{"OBJECT_NAME":"ONEWEB-0608","OBJECT_ID":"2022-166AG","EPOCH":"2025-12-17T07:26:33.738144","MEAN_MOTION":13.21825337,"ECCENTRICITY":0.00019264,"INCLINATION":87.9231,"RA_OF_ASC_NODE":280.2317,"ARG_OF_PERICENTER":93.3291,"MEAN_ANOMALY":266.8063,"EPHEMERIS_TYPE":0,"CLASSIFICATION_TYPE":"U","NORAD_CAT_ID":54672,"ELEMENT_SET_NO":999,"REV_AT_EPOCH":14752,"BSTAR":0.00031146063,"MEAN_MOTION_DOT":1.42e-6,"MEAN_MOTION_DDOT":0},{"OBJECT_NAME":"ONEWEB-0610","OBJECT_ID":"2022-166AH","EPOCH":"2025-12-17T06:58:07.612896","MEAN_MOTION":13.2182473,"ECCENTRICITY":0.00020167,"INCLINATION":87.922,"RA_OF_ASC_NODE":280.2682,"ARG_OF_PERICENTER":94.0571,"MEAN_ANOMALY":266.0794,"EPHEMERIS_TYPE":0,"CLASSIFICATION_TYPE":"U","NORAD_CAT_ID":54673,"ELEMENT_SET_NO":999,"REV_AT_EPOCH":14742,"BSTAR":0.00039325234,"MEAN_MOTION_DOT":1.75e-6,"MEAN_MOTION_DDOT":0},{"OBJECT_NAME":"ONEWEB-0611","OBJECT_ID":"2022-166AJ","EPOCH":"2025-12-17T06:48:38.660256","MEAN_MOTION":13.21827683,"ECCENTRICITY":0.0001824,"INCLINATION":87.922,"RA_OF_ASC_NODE":280.2652,"ARG_OF_PERICENTER":70.3729,"MEAN_ANOMALY":289.7602,"EPHEMERIS_TYPE":0,"CLASSIFICATION_TYPE":"U","NORAD_CAT_ID":54674,"ELEMENT_SET_NO":999,"REV_AT_EPOCH":14741,"BSTAR":2.6457323e-5,"MEAN_MOTION_DOT":2.4e-7,"MEAN_MOTION_DDOT":0},{"OBJECT_NAME":"ONEWEB-0612","OBJECT_ID":"2022-166AK","EPOCH":"2025-12-17T07:07:36.336576","MEAN_MOTION":13.21825906,"ECCENTRICITY":0.00018639,"INCLINATION":87.9224,"RA_OF_ASC_NODE":280.2417,"ARG_OF_PERICENTER":80.8621,"MEAN_ANOMALY":279.2724,"EPHEMERIS_TYPE":0,"CLASSIFICATION_TYPE":"U","NORAD_CAT_ID":54675,"ELEMENT_SET_NO":999,"REV_AT_EPOCH":14740,"BSTAR":0.00027232542,"MEAN_MOTION_DOT":1.25e-6,"MEAN_MOTION_DDOT":0},{"OBJECT_NAME":"ONEWEB-0615","OBJECT_ID":"2022-166AL","EPOCH":"2025-12-17T06:39:10.396224","MEAN_MOTION":13.21827275,"ECCENTRICITY":0.00018321,"INCLINATION":87.9223,"RA_OF_ASC_NODE":280.2728,"ARG_OF_PERICENTER":77.4353,"MEAN_ANOMALY":282.6986,"EPHEMERIS_TYPE":0,"CLASSIFICATION_TYPE":"U","NORAD_CAT_ID":54676,"ELEMENT_SET_NO":999,"REV_AT_EPOCH":14741,"BSTAR":-3.8086858e-5,"MEAN_MOTION_DOT":-3.0e-8,"MEAN_MOTION_DDOT":0},{"OBJECT_NAME":"ONEWEB-0655","OBJECT_ID":"2022-166AM","EPOCH":"2025-12-17T07:52:38.531136","MEAN_MOTION":13.21826125,"ECCENTRICITY":0.00020628,"INCLINATION":87.922,"RA_OF_ASC_NODE":280.2665,"ARG_OF_PERICENTER":77.866,"MEAN_ANOMALY":282.2705,"EPHEMERIS_TYPE":0,"CLASSIFICATION_TYPE":"U","NORAD_CAT_ID":54677,"ELEMENT_SET_NO":999,"REV_AT_EPOCH":14741,"BSTAR":0.00018006511,"MEAN_MOTION_DOT":8.7e-7,"MEAN_MOTION_DDOT":0}]
